0 ONEWEB-0275
1 48993U 21060AC  24188.88584719 -.00000073  00000-0 -22337-3 0  9997
2 48993  87.9102  10.1829 0001825  83.4575 276.6764 13.16594328146091
0 ONEWEB-0276
1 48994U 21060AD  24189.07107716 -.00000098  00000-0 -29006-3 0  9995
2 48994  87.9100  10.1419 0001818  79.8582 280.2754 13.16592584147435
0 ONEWEB-0277
1 48995U 21060AE  24188.93175707 -.00000146  00000-0 -41627-3 0  9992
2 48995  87.9099  10.2077 0002064  74.8550 285.2809 13.16594185146106
0 ONEWEB-0278
1 48996U 21060AF  24189.07424416  .00000700  00000-0  17974-2 0  9994
2 48996  87.9099  10.1382 0001533  91.7001 268.4306 13.16588358147565
0 ONEWEB-0279
1 48997U 21060AG  24188.93017645  .00000005  00000-0 -21476-4 0  9994
2 48997  87.9100  10.1645 0002082  78.6152 281.5213 13.16595697146164
0 ONEWEB-0280
1 48998U 21060AH  24188.86842891 -.00000112  00000-0 -32719-3 0  9997
2 48998  87.9101  10.1784 0001623  83.4981 276.6335 13.16594074146094
0 ONEWEB-0281
1 48999U 21060AJ  24188.87476262  .00000070  00000-0  14847-3 0  9997
2 48999  87.9100  10.1789 0002003  93.4669 266.6691 13.16595610146165
0 ONEWEB-0282
1 49000U 21060AK  24188.90484632 -.00000154  00000-0 -43647-3 0  9990
2 49000  87.9101  10.1895 0001788  78.0565 282.0766 13.16594877146148
